start=new Date('2022-02-04T00:00:00.000Z').valueOf();
sats=[{"MEAN_MOTION_DDOT":"0.0000000000000","OBJECT_TYPE":"PAYLOAD","NORAD_CAT_ID":"46796","ARG_OF_PERICENTER":"64.2379","RA_OF_ASC_NODE":"181.9961","PERIAPSIS":"546.129","MEAN_ANOMALY":"295.8765","SITE":"AFETR","FILE":"3291273","RCS_SIZE":"LARGE","CENTER_NAME":"EARTH","TLE_LINE2":"2 46796  53.0543 181.9961 0001506  64.2379 295.8765 15.06413491 71512","DECAY_DATE":null,"LAUNCH_DATE":"2020-10-24","INCLINATION":"53.0543","REV_AT_EPOCH":"7151","OBJECT_ID":"2020-074BK","ECCENTRICITY":"0.00015060","TIME_SYSTEM":"UTC","MEAN_ELEMENT_THEORY":"SGP4","SEMIMAJOR_AXIS":"6925.307","COUNTRY_CODE":"US","MEAN_MOTION_DOT":"0.00007790","ELEMENT_SET_NO":"999","APOAPSIS":"548.215","TLE_LINE1":"1 46796U 20074BK  22034.89943664  .00007790  00000-0  54109-3 0  9990","EPOCH":"2022-02-03T21:35:11.325696","MEAN_MOTION":"15.06413491","GP_ID":"195259510","CLASSIFICATION_TYPE":"U","PERIOD":"95.591","BSTAR":"0.00054109000000","REF_FRAME":"TEME","OBJECT_NAME":"STARLINK-1944","EPHEMERIS_TYPE":"0"},{"ECCENTRICITY":"0.00021090","OBJECT_ID":"2020-074BL","REV_AT_EPOCH":"7238","SEMIMAJOR_AXIS":"6744.587","MEAN_ELEMENT_THEORY":"SGP4","TIME_SYSTEM":"UTC","MEAN_MOTION_DOT":"0.00041992","COUNTRY_CODE":"US","ELEMENT_SET_NO":"999","TLE_LINE1":"1 46797U 20074BL  22034.63057308  .00041992  00000-0  38484-3 0  9994","EPOCH":"2022-02-03T15:08:01.514112","MEAN_MOTION":"15.67363569","APOAPSIS":"367.874","CLASSIFICATION_TYPE":"U","GP_ID":"195259760","REF_FRAME":"TEME","PERIOD":"91.874","BSTAR":"0.00038484000000","OBJECT_NAME":"STARLINK-1947","EPHEMERIS_TYPE":"0","NORAD_CAT_ID":"46797","OBJECT_TYPE":"PAYLOAD","MEAN_MOTION_DDOT":"0.0000000000000","ARG_OF_PERICENTER":"23.8072","RA_OF_ASC_NODE":"119.1725","PERIAPSIS":"365.029","MEAN_ANOMALY":"336.3040","FILE":"3291273","SITE":"AFETR","RCS_SIZE":"LARGE","CENTER_NAME":"EARTH","TLE_LINE2":"2 46797  53.0533 119.1725 0002109  23.8072 336.3040 15.67363569 72384","DECAY_DATE":null,"LAUNCH_DATE":"2020-10-24","INCLINATION":"53.0533"},{"DECAY_DATE":null,"LAUNCH_DATE":"2020-10-24","INCLINATION":"53.0529","RCS_SIZE":"LARGE","CENTER_NAME":"EARTH","TLE_LINE2":"2 46798  53.0529 207.1526 0001589  82.6957 277.4212 15.06400632 71160","MEAN_ANOMALY":"277.4212","FILE":"3291273","SITE":"AFETR","MEAN_MOTION_DDOT":"0.0000000000000","OBJECT_TYPE":"PAYLOAD","NORAD_CAT_ID":"46798","ARG_OF_PERICENTER":"82.6957","RA_OF_ASC_NODE":"207.1526","PERIAPSIS":"546.111","OBJECT_NAME":"STARLINK-1948","EPHEMERIS_TYPE":"0","GP_ID":"195260509","CLASSIFICATION_TYPE":"U","REF_FRAME":"TEME","PERIOD":"95.592","BSTAR":"0.00008432600000","ELEMENT_SET_NO":"999","COUNTRY_CODE":"US","MEAN_MOTION_DOT":"0.00000975","TLE_LINE1":"1 46798U 20074BM  22034.86486830  .00000975  00000-0  84326-4 0  9999","MEAN_MOTION":"15.06400632","EPOCH":"2022-02-03T20:45:24.621120","APOAPSIS":"548.312","ECCENTRICITY":"0.00015890","OBJECT_ID":"2020-074BM","REV_AT_EPOCH":"7116","SEMIMAJOR_AXIS":"6925.347","TIME_SYSTEM":"UTC","MEAN_ELEMENT_THEORY":"SGP4"},{"OBJECT_NAME":"STARLINK-1777","EPHEMERIS_TYPE":"0","CLASSIFICATION_TYPE":"U","GP_ID":"195260300","REF_FRAME":"TEME","PERIOD":"95.592","BSTAR":"0.00010117000000","COUNTRY_CODE":"US","MEAN_MOTION_DOT":"0.00001226","ELEMENT_SET_NO":"999","TLE_LINE1":"1 47122U 20088A   22034.81928260  .00001226  00000-0  10117-3 0  9995","EPOCH":"2022-02-03T19:39:46.016640","MEAN_MOTION":"15.06402641","APOAPSIS":"548.317","OBJECT_ID":"2020-088A","ECCENTRICITY":"0.00016050","REV_AT_EPOCH":"6652","SEMIMAJOR_AXIS":"6925.340","TIME_SYSTEM":"UTC","MEAN_ELEMENT_THEORY":"SGP4","DECAY_DATE":null,"LAUNCH_DATE":"2020-11-25","INCLINATION":"53.0531","RCS_SIZE":"LARGE","CENTER_NAME":"EARTH","TLE_LINE2":"2 47122  53.0531 172.3449 0001605  99.4366 260.6804 15.06402641 66528","MEAN_ANOMALY":"260.6804","FILE":"3291273","SITE":"AFETR","OBJECT_TYPE":"PAYLOAD","NORAD_CAT_ID":"47122","MEAN_MOTION_DDOT":"0.0000000000000","ARG_OF_PERICENTER":"99.4366","RA_OF_ASC_NODE":"172.3449","PERIAPSIS":"546.094"},{"OBJECT_NAME":"STARLINK-1785","EPHEMERIS_TYPE":"0","GP_ID":"195259548","CLASSIFICATION_TYPE":"U","BSTAR":"0.00006896000000","PERIOD":"95.592","REF_FRAME":"TEME","ELEMENT_SET_NO":"999","COUNTRY_CODE":"US","MEAN_MOTION_DOT":"0.00000746","APOAPSIS":"548.260","MEAN_MOTION":"15.06407489","EPOCH":"2022-02-03T19:19:08.676192","TLE_LINE1":"1 47124U 20088C   22034.80496153  .00000746  00000-0  68960-4 0  9993","REV_AT_EPOCH":"6645","ECCENTRICITY":"0.00015440","OBJECT_ID":"2020-088C","MEAN_ELEMENT_THEORY":"SGP4","TIME_SYSTEM":"UTC","SEMIMAJOR_AXIS":"6925.326","DECAY_DATE":null,"LAUNCH_DATE":"2020-11-25","INCLINATION":"53.0528","RCS_SIZE":"LARGE","CENTER_NAME":"EARTH","TLE_LINE2":"2 47124  53.0528 177.4230 0001544  77.8496 282.2666 15.06407489 66459","MEAN_ANOMALY":"282.2666","SITE":"AFETR","FILE":"3291273","NORAD_CAT_ID":"47124","OBJECT_TYPE":"PAYLOAD","MEAN_MOTION_DDOT":"0.0000000000000","ARG_OF_PERICENTER":"77.8496","PERIAPSIS":"546.121","RA_OF_ASC_NODE":"177.4230"},{"TIME_SYSTEM":"UTC","MEAN_ELEMENT_THEORY":"SGP4","SEMIMAJOR_AXIS":"6925.361","REV_AT_EPOCH":"6682","ECCENTRICITY":"0.00018720","OBJECT_ID":"2020-088E","APOAPSIS":"548.523","MEAN_MOTION":"15.06395864","EPOCH":"2022-02-03T18:41:22.779168","TLE_LINE1":"1 47126U 20088E   22034.77873587  .00001531  00000-0  12170-3 0  9995","MEAN_MOTION_DOT":"0.00001531","COUNTRY_CODE":"US","ELEMENT_SET_NO":"999","BSTAR":"0.00012170000000","PERIOD":"95.592","REF_FRAME":"TEME","CLASSIFICATION_TYPE":"U","GP_ID":"195264319","EPHEMERIS_TYPE":"0","OBJECT_NAME":"STARLINK-1812","PERIAPSIS":"545.930","RA_OF_ASC_NODE":"172.5312","MEAN_MOTION_DDOT":"0.0000000000000","OBJECT_TYPE":"PAYLOAD","NORAD_CAT_ID":"47126","ARG_OF_PERICENTER":"84.4788","SITE":"AFETR","FILE":"3291307","MEAN_ANOMALY":"275.6414","TLE_LINE2":"2 47126  53.0525 172.5312 0001872  84.4788 275.6414 15.06395864 66828","RCS_SIZE":"LARGE","CENTER_NAME":"EARTH","INCLINATION":"53.0525","DECAY_DATE":null,"LAUNCH_DATE":"2020-11-25"},{"REF_FRAME":"TEME","PERIOD":"95.592","BSTAR":"0.00008440100000","CLASSIFICATION_TYPE":"U","GP_ID":"195264513","EPHEMERIS_TYPE":"0","OBJECT_NAME":"STARLINK-1837","SEMIMAJOR_AXIS":"6925.326","MEAN_ELEMENT_THEORY":"SGP4","TIME_SYSTEM":"UTC","OBJECT_ID":"2020-088G","ECCENTRICITY":"0.00028450","REV_AT_EPOCH":"6709","TLE_LINE1":"1 47128U 20088G   22034.73633221  .00000976  00000-0  84401-4 0  9991","MEAN_MOTION":"15.06407374","EPOCH":"2022-02-03T17:40:19.102944","APOAPSIS":"549.161","MEAN_MOTION_DOT":"0.00000976","COUNTRY_CODE":"US","ELEMENT_SET_NO":"999","TLE_LINE2":"2 47128  53.0555 152.7252 0002845  78.3000 281.8308 15.06407374 67097","CENTER_NAME":"EARTH","RCS_SIZE":"LARGE","INCLINATION":"53.0555","LAUNCH_DATE":"2020-11-25","DECAY_DATE":null,"RA_OF_ASC_NODE":"152.7252","PERIAPSIS":"545.221","OBJECT_TYPE":"PAYLOAD","MEAN_MOTION_DDOT":"0.0000000000000","ARG_OF_PERICENTER":"78.3000","NORAD_CAT_ID":"47128","FILE":"3291315","SITE":"AFETR","MEAN_ANOMALY":"281.8308"},{"FILE":"3291273","SITE":"AFETR","MEAN_ANOMALY":"281.2460","PERIAPSIS":"545.896","RA_OF_ASC_NODE":"162.5955","OBJECT_TYPE":"PAYLOAD","NORAD_CAT_ID":"47129","MEAN_MOTION_DDOT":"0.0000000000000","ARG_OF_PERICENTER":"78.8747","INCLINATION":"53.0539","DECAY_DATE":null,"LAUNCH_DATE":"2020-11-25","TLE_LINE2":"2 47129  53.0539 162.5955 0001937  78.8747 281.2460 15.06392081 66666","CENTER_NAME":"EARTH","RCS_SIZE":"LARGE","EPOCH":"2022-02-03T18:21:29.282400","MEAN_MOTION":"15.06392081","TLE_LINE1":"1 47129U 20088H   22034.76492225 -.00000146  00000-0  90960-5 0  9990","APOAPSIS":"548.579","COUNTRY_CODE":"US","MEAN_MOTION_DOT":"-0.00000146","ELEMENT_SET_NO":"999","SEMIMAJOR_AXIS":"6925.373","MEAN_ELEMENT_THEORY":"SGP4","TIME_SYSTEM":"UTC","ECCENTRICITY":"0.00019370","OBJECT_ID":"2020-088H","REV_AT_EPOCH":"6666","EPHEMERIS_TYPE":"0","OBJECT_NAME":"STARLINK-1838","REF_FRAME":"TEME","BSTAR":"0.00000909600000","PERIOD":"95.593","GP_ID":"195260800","CLASSIFICATION_TYPE":"U"},{"RA_OF_ASC_NODE":"182.3631","PERIAPSIS":"546.109","OBJECT_TYPE":"PAYLOAD","NORAD_CAT_ID":"47130","MEAN_MOTION_DDOT":"0.0000000000000","ARG_OF_PERICENTER":"69.6495","FILE":"3291273","SITE":"AFETR","MEAN_ANOMALY":"290.4664","TLE_LINE2":"2 47130  53.0539 182.3631 0001579  69.6495 290.4664 15.06403658 66389","CENTER_NAME":"EARTH","RCS_SIZE":"LARGE","INCLINATION":"53.0539","DECAY_DATE":null,"LAUNCH_DATE":"2020-11-25","SEMIMAJOR_AXIS":"6925.337","MEAN_ELEMENT_THEORY":"SGP4","TIME_SYSTEM":"UTC","OBJECT_ID":"2020-088J","ECCENTRICITY":"0.00015790","REV_AT_EPOCH":"6638","TLE_LINE1":"1 47130U 20088J   22034.81465834  .00000749  00000-0  69157-4 0  9995","EPOCH":"2022-02-03T19:33:06.480576","MEAN_MOTION":"15.06403658","APOAPSIS":"548.296","COUNTRY_CODE":"US","ELEMENT_SET_NO":"999","MEAN_MOTION_DOT":"0.00000749","REF_FRAME":"TEME","PERIOD":"95.592","BSTAR":"0.00006915700000","CLASSIFICATION_TYPE":"U","GP_ID":"195259049","EPHEMERIS_TYPE":"0","OBJECT_NAME":"STARLINK-1839"},{"RA_OF_ASC_NODE":"162.6429","PERIAPSIS":"546.142","NORAD_CAT_ID":"47133","OBJECT_TYPE":"PAYLOAD","MEAN_MOTION_DDOT":"0.0000000000000","ARG_OF_PERICENTER":"85.6262","FILE":"3291273","SITE":"AFETR","MEAN_ANOMALY":"274.4898","TLE_LINE2":"2 47133  53.0501 162.6429 0001496  85.6262 274.4898 15.06411711 66655","CENTER_NAME":"EARTH","RCS_SIZE":"LARGE","INCLINATION":"53.0501","DECAY_DATE":null,"LAUNCH_DATE":"2020-11-25","SEMIMAJOR_AXIS":"6925.313","TIME_SYSTEM":"UTC","MEAN_ELEMENT_THEORY":"SGP4","OBJECT_ID":"2020-088M","ECCENTRICITY":"0.00014960","REV_AT_EPOCH":"6665","TLE_LINE1":"1 47133U 20088M   22034.75752391  .00002988  00000-0  21931-3 0  9992","MEAN_MOTION":"15.06411711","EPOCH":"2022-02-03T18:10:50.065824","APOAPSIS":"548.214","ELEMENT_SET_NO":"999","COUNTRY_CODE":"US","MEAN_MOTION_DOT":"0.00002988","REF_FRAME":"TEME","PERIOD":"95.591","BSTAR":"0.00021931000000","CLASSIFICATION_TYPE":"U","GP_ID":"195259299","EPHEMERIS_TYPE":"0","OBJECT_NAME":"STARLINK-1843"}];
